NORAD_CAT_ID,OBJECT_NAME,OBJECT_TYPE,EPOCH,MEAN_MOTION,ECCENTRICITY,INCLINATION,RA_OF_ASC_NODE,ARG_OF_PERICENTER,MEAN_ANOMALY,BSTAR,MEAN_MOTION_DOT,MEAN_MOTION_DDOT,TLE_LINE0,TLE_LINE1,TLE_LINE2,SEMIMAJOR_AXIS,PERIOD,APOGEE,PERIGEE,DECAYED
52628.0,STARLINK-4001,PAYLOAD,2023-03-13 04:48:15,15.08827661,6.84e-05,53.2131,148.4963,98.8859,261.2211,0.00065277,0.00010113,0.0,0 STARLINK-4001,1 52628U 22052AG  23072.20018017  .00010113  00000-0  65277-3 0  9993,2 52628  53.2131 148.4963 0000684  98.8859 261.2211 15.08827661 46234,6917.918,95.438,540.256,539.31,0.0
52628.0,STARLINK-4001,PAYLOAD,2023-03-14 11:00:34,15.08878585,0.0001274,53.2137,142.8484,72.0839,288.0292,0.0015386,0.0002431,0.0,0 STARLINK-4001,1 52628U 22052AG  23073.45873288  .00024310  00000-0  15386-2 0  9999,2 52628  53.2137 142.8484 0001274  72.0839 288.0292 15.08878585 46422,6917.762,95.435,540.509,538.746,0.0
52628.0,STARLINK-4001,PAYLOAD,2023-03-15 04:29:48,15.08874813,0.0002163,53.2147,139.5737,94.4935,265.6304,0.00080829,0.00012612,0.0,0 STARLINK-4001,1 52628U 22052AG  23074.18736193  .00012612  00000-0  80829-3 0  9990,2 52628  53.2147 139.5737 0002163  94.4935 265.6304 15.08874813 46537,6917.774,95.435,541.135,538.143,0.0
52628.0,STARLINK-4001,PAYLOAD,2023-03-15 10:51:20,15.08875185,0.0001552,53.215,138.3849,85.3903,274.7267,0.00054132,8.346e-05,0.0,0 STARLINK-4001,1 52628U 22052AG  23074.45231549  .00008346  00000-0  54132-3 0  9992,2 52628  53.2150 138.3849 0001552  85.3903 274.7267 15.08875185 46191,6917.773,95.435,540.711,538.564,0.0
52628.0,STARLINK-4001,PAYLOAD,2023-03-16 09:06:44,15.08840246,0.0001406,53.2148,134.2255,98.9305,261.1847,-0.00025808,-4.393e-05,0.0,0 STARLINK-4001,1 52628U 22052AG  23075.37968057 -.00004393  00000-0 -25808-3 0  9993,2 52628  53.2148 134.2255 0001406  98.9305 261.1847 15.08840246 46710,6917.88,95.438,540.717,538.772,0.0
52628.0,STARLINK-4001,PAYLOAD,2023-03-16 20:14:27,15.08814376,0.0001784,53.2148,132.1396,87.0467,273.073,-0.00054967,-9.019e-05,0.0,0 STARLINK-4001,1 52628U 22052AG  23075.84337414 -.00009019  00000-0 -54967-3 0  9990,2 52628  53.2148 132.1396 0001784  87.0467 273.0730 15.08814376 46785,6917.959,95.439,541.058,538.59,0.0
52628.0,STARLINK-4001,PAYLOAD,2023-03-17 10:32:56,15.08823469,0.0001305,53.2142,129.4658,96.5198,263.5942,-4.8061e-05,-1.052e-05,0.0,0 STARLINK-4001,1 52628U 22052AG  23076.43953893 -.00001052  00000-0 -48061-4 0  9999,2 52628  53.2142 129.4658 0001305  96.5198 263.5942 15.08823469 46876,6917.931,95.439,540.699,538.893,0.0
52628.0,STARLINK-4001,PAYLOAD,2023-03-17 20:05:15,15.08831529,0.0001249,53.2142,127.681,100.1199,259.9934,0.00084664,0.00013209,0.0,0 STARLINK-4001,1 52628U 22052AG  23076.83698195  .00013209  00000-0  84664-3 0  9997,2 52628  53.2142 127.6810 0001249 100.1199 259.9934 15.08831529 46557,6917.906,95.438,540.635,538.907,0.0
52628.0,STARLINK-4001,PAYLOAD,2023-03-18 10:23:42,15.08873777,0.0001147,53.2143,125.0054,98.0609,262.0513,0.0015518,0.00024518,0.0,0 STARLINK-4001,1 52628U 22052AG  23077.43313418  .00024518  00000-0  15518-2 0  9992,2 52628  53.2143 125.0054 0001147  98.0609 262.0513 15.08873777 47020,6917.777,95.435,540.436,538.849,0.0
52628.0,STARLINK-4001,PAYLOAD,2023-03-18 19:56:01,15.08862151,0.0001142,53.2137,123.2204,82.6097,277.5025,0.00068099,0.00010573,0.0,0 STARLINK-4001,1 52628U 22052AG  23077.83057111  .00010573  00000-0  68099-3 0  9990,2 52628  53.2137 123.2204 0001142  82.6097 277.5025 15.08862151 47084,6917.813,95.436,540.468,538.888,0.0
52628.0,STARLINK-4001,PAYLOAD,2023-03-19 10:14:29,15.08842637,0.0001206,53.2136,120.5449,85.5528,274.5602,0.001135,0.00017823,0.0,0 STARLINK-4001,1 52628U 22052AG  23078.42673449  .00017823  00000-0  11350-2 0  9996,2 52628  53.2136 120.5449 0001206  85.5528 274.5602 15.08842637 47171,6917.872,95.437,540.572,538.903,0.0
52628.0,STARLINK-4001,PAYLOAD,2023-03-19 19:46:48,15.08843527,0.0001096,53.2134,118.7603,98.2554,261.8562,0.00078392,0.00012211,0.0,0 STARLINK-4001,1 52628U 22052AG  23078.82417525  .00012211  00000-0  78392-3 0  9997,2 52628  53.2134 118.7603 0001096  98.2554 261.8562 15.08843527 47237,6917.87,95.437,540.493,538.976,0.0
52628.0,STARLINK-4001,PAYLOAD,2023-03-20 10:05:16,15.08851996,0.0001329,53.2141,116.0849,89.9817,270.1328,0.0006655,0.00010323,0.0,0 STARLINK-4001,1 52628U 22052AG  23079.42033299  .00010323  00000-0  66550-3 0  9991,2 52628  53.2141 116.0849 0001329  89.9817 270.1328 15.08851996 46945,6917.844,95.437,540.628,538.789,0.0
52628.0,STARLINK-4001,PAYLOAD,2023-03-20 19:37:35,15.08842204,0.0001356,53.2135,114.2993,82.378,277.7366,0.00034047,5.135e-05,0.0,0 STARLINK-4001,1 52628U 22052AG  23079.81777493  .00005135  00000-0  34047-3 0  9996,2 52628  53.2135 114.2993 0001356  82.3780 277.7366 15.08842204 47380,6917.874,95.437,540.677,538.801,0.0
52628.0,STARLINK-4001,PAYLOAD,2023-03-21 11:31:27,15.08844532,0.0001642,53.2146,111.3251,79.3618,280.7559,0.0004074,6.202e-05,0.0,0 STARLINK-4001,1 52628U 22052AG  23080.48017571  .00006202  00000-0  40740-3 0  9998,2 52628  53.2146 111.3251 0001642  79.3618 280.7559 15.08844532 47105,6917.867,95.437,540.867,538.596,0.0
52628.0,STARLINK-4001,PAYLOAD,2023-03-22 11:22:14,15.08845371,0.0001474,53.2139,106.8616,86.0247,274.0914,0.00018493,2.657e-05,0.0,0 STARLINK-4001,1 52628U 22052AG  23081.47377518  .00002657  00000-0  18493-3 0  9998,2 52628  53.2139 106.8616 0001474  86.0247 274.0914 15.08845371 47638,6917.864,95.437,540.749,538.709,0.0
52628.0,STARLINK-4001,PAYLOAD,2023-03-22 12:57:37,15.08849206,0.0001525,53.2149,106.5649,84.7496,275.367,0.00033156,4.994e-05,0.0,0 STARLINK-4001,1 52628U 22052AG  23081.54001419  .00004994  00000-0  33156-3 0  9999,2 52628  53.2149 106.5649 0001525  84.7496 275.3670 15.08849206 47263,6917.852,95.437,540.772,538.662,0.0
52628.0,STARLINK-4001,PAYLOAD,2023-03-23 08:02:14,15.08846155,0.000155,53.2149,102.9981,103.6711,256.4454,0.00017475,2.495e-05,0.0,0 STARLINK-4001,1 52628U 22052AG  23082.33489270  .00002495  00000-0  17475-3 0  9992,2 52628  53.2149 102.9981 0001550 103.6711 256.4454 15.08846155 47384,6917.862,95.437,540.799,538.654,0.0
52628.0,STARLINK-4001,PAYLOAD,2023-03-24 04:42:15,15.08854402,0.00014,53.2142,99.134,89.5764,270.5388,0.00025436,3.764e-05,0.0,0 STARLINK-4001,1 52628U 22052AG  23083.19601139  .00003764  00000-0  25436-3 0  9993,2 52628  53.2142  99.1340 0001400  89.5764 270.5388 15.08854402 47890,6917.836,95.437,540.67,538.733,0.0
52628.0,STARLINK-4001,PAYLOAD,2023-03-24 12:39:10,15.08862459,0.0001446,53.2152,97.6425,105.9369,254.1782,0.00041568,6.338e-05,0.0,0 STARLINK-4001,1 52628U 22052AG  23083.52720343  .00006338  00000-0  41568-3 0  9993,2 52628  53.2152  97.6425 0001446 105.9369 254.1782 15.08862459 47563,6917.812,95.436,540.677,538.676,0.0
52628.0,STARLINK-4001,PAYLOAD,2023-03-24 17:25:21,15.0882387,0.0001231,53.2146,96.7528,109.4864,250.6262,-0.00033696,-5.644e-05,0.0,0 STARLINK-4001,1 52628U 22052AG  23083.72593802 -.00005644  00000-0 -33696-3 0  9997,2 52628  53.2146  96.7528 0001231 109.4864 250.6262 15.08823870 47974,6917.93,95.439,540.646,538.943,0.0
52628.0,STARLINK-4001,PAYLOAD,2023-03-25 09:19:12,15.08833075,0.000134,53.2149,93.7784,108.0891,252.0247,-2.912e-05,-7.51e-06,0.0,0 STARLINK-4001,1 52628U 22052AG  23084.38833824 -.00000751  00000-0 -29120-4 0  9993,2 52628  53.2149  93.7784 0001340 108.0891 252.0247 15.08833075 48073,6917.902,95.438,540.694,538.84,0.0
52628.0,STARLINK-4001,PAYLOAD,2023-03-25 17:16:08,15.08834263,0.00013,53.2152,92.2914,108.2147,251.8986,6.5722e-05,7.58e-06,0.0,0 STARLINK-4001,1 52628U 22052AG  23084.71954022  .00000758  00000-0  65722-4 0  9997,2 52628  53.2152  92.2914 0001300 108.2147 251.8986 15.08834263 47748,6917.898,95.438,540.662,538.864,0.0
52628.0,STARLINK-4001,PAYLOAD,2023-03-26 10:45:22,15.08855825,0.0001191,53.2151,89.0205,105.7629,254.3494,0.00091207,0.00014264,0.0,0 STARLINK-4001,1 52628U 22052AG  23085.44817893  .00014264  00000-0  91207-3 0  9995,2 52628  53.2151  89.0205 0001191 105.7629 254.3494 15.08855825 48233,6917.832,95.437,540.521,538.873,0.0
52628.0,STARLINK-4001,PAYLOAD,2023-03-27 04:14:37,15.08847554,0.0001239,53.2151,85.7502,104.9091,255.2038,0.00040681,6.194e-05,0.0,0 STARLINK-4001,1 52628U 22052AG  23086.17682021  .00006194  00000-0  40681-3 0  9992,2 52628  53.2151  85.7502 0001239 104.9091 255.2038 15.08847554 48349,6917.857,95.437,540.579,538.865,0.0
52628.0,STARLINK-4001,PAYLOAD,2023-03-27 07:25:23,15.08846439,0.0001201,53.2151,85.1551,103.5581,256.5545,0.00036652,5.551e-05,0.0,0 STARLINK-4001,1 52628U 22052AG  23086.30930000  .00005551  00000-0  36652-3 0  9999,2 52628  53.2151  85.1551 0001201 103.5581 256.5545 15.08846439 47982,6917.861,95.437,540.557,538.895,0.0
52628.0,STARLINK-4001,PAYLOAD,2023-03-28 04:05:24,15.08845999,0.0001348,53.2159,81.2894,100.3182,259.7962,0.00032604,4.906e-05,0.0,0 STARLINK-4001,1 52628U 22052AG  23087.17042084  .00004906  00000-0  32604-3 0  9997,2 52628  53.2159  81.2894 0001348 100.3182 259.7962 15.08845999 48496,6917.862,95.437,540.66,538.795,0.0
52628.0,STARLINK-4001,PAYLOAD,2023-03-28 05:40:47,15.08846434,0.0001308,53.2162,80.9933,98.2642,261.8498,0.00033565,5.059e-05,0.0,0 STARLINK-4001,1 52628U 22052AG  23087.23666082  .00005059  00000-0  33565-3 0  9991,2 52628  53.2162  80.9933 0001308  98.2642 261.8498 15.08846434 48125,6917.861,95.437,540.631,538.821,0.0
52628.0,STARLINK-4001,PAYLOAD,2023-03-28 16:48:29,15.08846236,9.25e-05,53.2135,78.9128,71.9319,288.1774,0.00031897,4.793e-05,0.0,0 STARLINK-4001,1 52628U 22052AG  23087.70034058  .00004793  00000-0  31897-3 0  9995,2 52628  53.2135  78.9128 0000925  71.9319 288.1774 15.08846236 48197,6917.861,95.437,540.366,539.086,0.0
52628.0,STARLINK-4001,PAYLOAD,2023-03-29 05:31:34,15.08844359,0.0001244,53.2149,76.5306,88.3233,271.7901,0.00021528,3.14e-05,0.0,0 STARLINK-4001,1 52628U 22052AG  23088.23026121  .00003140  00000-0  21528-3 0  9991,2 52628  53.2149  76.5306 0001244  88.3233 271.7901 15.08844359 48651,6917.867,95.437,540.593,538.871,0.0
